QIANFAN-73              
1 63159U 25046A   25360.97387760  .00000183  00000+0  26391-3 0  9999
2 63159  88.9774 318.5497 0016989  82.3199 277.9881 13.50980837 49336
QIANFAN-74              
1 63160U 25046B   25360.95727646  .00000190  00000+0  27597-3 0  9997
2 63160  88.9775 318.4402 0002005  73.0407 287.0964 13.50977647 49392
QIANFAN-75              
1 63161U 25046C   25360.94453928  .00000211  00000+0  30770-3 0  9997
2 63161  88.9776 318.6753 0018110  84.9725 275.3493 13.50983217 49266
QIANFAN-76              
1 63162U 25046D   25360.94118688  .00000159  00000+0  22666-3 0  9995
2 63162  88.9775 318.6562 0015670  85.3382 274.9559 13.50983081 49274
QIANFAN-77              
1 63163U 25046E   25360.94863446  .00000508  00000+0  36031-3 0  9994
2 63163  88.9776 316.5460 0016550  41.6517 318.5917 13.96099179 50432
QIANFAN-78              
1 63164U 25046F   25360.90801486  .00000197  00000+0  28588-3 0  9999
2 63164  88.9774 318.5235 0017025  87.5249 272.7851 13.50981267 49346
QIANFAN-79              
1 63165U 25046G   25360.93665811  .00000196  00000+0  28511-3 0  9998
2 63165  88.9778 318.6286 0016732  85.8676 274.4387 13.50983057 49293
QIANFAN-80              
1 63166U 25046H   25360.95319875  .00000219  00000+0  31965-3 0  9990
2 63166  88.9776 318.3334 0015674  89.4779 270.8168 13.50981093 49454
